<?xml version="1.0" encoding="UTF-8"?>
<kml xmlns="http://www.opengis.net/kml/2.2">
  <Document>
    <name>bogor_timur</name>
    <Style id="poly-000000-1200-77-nodesc-normal">
      <LineStyle>
        <color>ff000000</color>
        <width>1.2</width>
      </LineStyle>
      <PolyStyle>
        <color>4d000000</color>
        <fill>1</fill>
        <outline>1</outline>
      </PolyStyle>
      <BalloonStyle>
        <text><![CDATA[<h3>$[name]</h3>]]></text>
      </BalloonStyle>
    </Style>
    <Style id="poly-000000-1200-77-nodesc-highlight">
      <LineStyle>
        <color>ff000000</color>
        <width>1.8</width>
      </LineStyle>
      <PolyStyle>
        <color>4d000000</color>
        <fill>1</fill>
        <outline>1</outline>
      </PolyStyle>
      <BalloonStyle>
        <text><![CDATA[<h3>$[name]</h3>]]></text>
      </BalloonStyle>
    </Style>
    <StyleMap id="poly-000000-1200-77-nodesc">
      <Pair>
        <key>normal</key>
        <styleUrl>#poly-000000-1200-77-nodesc-normal</styleUrl>
      </Pair>
      <Pair>
        <key>highlight</key>
        <styleUrl>#poly-000000-1200-77-nodesc-highlight</styleUrl>
      </Pair>
    </StyleMap>
    <Placemark>
      <name>Bogor Timur</name>
      <styleUrl>#poly-000000-1200-77-nodesc</styleUrl>
      <Polygon>
        <outerBoundaryIs>
          <LinearRing>
            <tessellate>1</tessellate>
            <coordinates>
              106.8069463,-6.6044379,0
              106.8060666,-6.6032869,0
              106.8057018,-6.6025622,0
              106.8052941,-6.6017309,0
              106.8049293,-6.6014111,0
              106.8037062,-6.6018161,0
              106.8024402,-6.6022211,0
              106.8022256,-6.6023277,0
              106.8025046,-6.6026687,0
              106.8028908,-6.6033082,0
              106.8032985,-6.6034787,0
              106.8038135,-6.60431,0
              106.8040281,-6.60512,0
              106.8045431,-6.6055676,0
              106.8051868,-6.60593,0
              106.8058305,-6.6071663,0
              106.807118,-6.6083599,0
              106.8066888,-6.6088075,0
              106.8067317,-6.608978,0
              106.806324,-6.6093404,0
              106.805852,-6.6093617,0
              106.8053584,-6.6095962,0
              106.8049293,-6.6096388,0
              106.8047147,-6.6096601,0
              106.8045431,-6.6099585,0
              106.8055155,-6.6107994,0
              106.8064528,-6.6117703,0
              106.8071609,-6.6126442,0
              106.8086415,-6.614392,0
              106.8095856,-6.6155857,0
              106.8104868,-6.6165235,0
              106.8117099,-6.6174401,0
              106.8127184,-6.6182074,0
              106.8134694,-6.6189747,0
              106.8145852,-6.6199339,0
              106.8162589,-6.6213193,0
              106.8200722,-6.6244667,0
              106.82251,-6.6271264,0
              106.8243125,-6.6299399,0
              106.8256512,-6.6331629,0
              106.8281832,-6.6359337,0
              106.8310156,-6.6374683,0
              106.8314876,-6.6372978,0
              106.8323889,-6.6380224,0
              106.8332901,-6.6382782,0
              106.8341913,-6.6387471,0
              106.8359508,-6.6401964,0
              106.8375816,-6.6414966,0
              106.8388691,-6.6430525,0
              106.8385901,-6.6433295,0
              106.839899,-6.6445231,0
              106.8386116,-6.6455462,0
              106.8382599,-6.6457974,0
              106.8389764,-6.6465905,0
              106.8392899,-6.6470335,0
              106.840178,-6.6474004,0
              106.8413796,-6.6480398,0
              106.8419077,-6.648355,0
              106.8423881,-6.6492973,0
              106.8429675,-6.6502138,0
              106.8437185,-6.6511729,0
              106.8447402,-6.6525324,0
              106.8454995,-6.6533255,0
              106.8461218,-6.6540289,0
              106.8463793,-6.6542207,0
              106.8476584,-6.6546637,0
              106.8486967,-6.651045,0
              106.848804,-6.6495744,0
              106.8487611,-6.6470807,0
              106.8481173,-6.6447576,0
              106.8473878,-6.6430951,0
              106.8468299,-6.6419229,0
              106.845993,-6.6408145,0
              106.8433323,-6.6372338,0
              106.8417659,-6.6352303,0
              106.8405213,-6.6334399,0
              106.8394914,-6.6320972,0
              106.8384399,-6.6301149,0
              106.8377747,-6.6285803,0
              106.8368735,-6.6264063,0
              106.8354144,-6.622527,0
              106.8342771,-6.6197348,0
              106.8324318,-6.6151948,0
              106.8319168,-6.6124665,0
              106.8316593,-6.6099513,0
              106.8315091,-6.605603,0
              106.8314447,-6.6042389,0
              106.8313804,-6.6024484,0
              106.8315091,-6.6002316,0
              106.8316776,-6.5987265,0
              106.8314876,-6.597695,0
              106.8312056,-6.5971492,0
              106.8305833,-6.5965736,0
              106.8298537,-6.5962752,0
              106.8289127,-6.5963308,0
              106.8276221,-6.5962752,0
              106.8261876,-6.5963521,0
              106.8249185,-6.5963605,0
              106.8249185,-6.5977673,0
              106.8245783,-6.5984624,0
              106.8246181,-6.5993447,0
              106.8250289,-6.5999118,0
              106.8249399,-6.6003678,0
              106.8251974,-6.6006875,0
              106.8256695,-6.6008367,0
              106.8258841,-6.6016467,0
              106.8263776,-6.6018172,0
              106.8265278,-6.6021796,0
              106.826399,-6.6027551,0
              106.8264849,-6.6030322,0
              106.8269569,-6.6029683,0
              106.8274934,-6.6032667,0
              106.8276865,-6.6037996,0
              106.8274536,-6.6040044,0
              106.826767,-6.6042815,0
              106.8264205,-6.6043964,0
              106.8263132,-6.6050359,0
              106.8254795,-6.6052833,0
              106.8247683,-6.6048014,0
              106.8236127,-6.6050275,0
              106.822365,-6.6051211,0
              106.8210561,-6.6046948,0
              106.8186957,-6.6042046,0
              106.8183524,-6.6023075,0
              106.8182053,-6.6006366,0
              106.8180551,-6.5989953,0
              106.8179233,-6.5974476,0
              106.8166818,-6.5980361,0
              106.8155446,-6.5985477,0
              106.8139567,-6.5996774,0
              106.8112101,-6.6015318,0
              106.8069463,-6.6044379,0
            </coordinates>
          </LinearRing>
        </outerBoundaryIs>
      </Polygon>
    </Placemark>
  </Document>
</kml>
