<?xml version="1.0" encoding="UTF-8"?>
<kml xmlns="http://www.opengis.net/kml/2.2">
  <Document>
    <name>bogor_tengah</name>
    <Style id="poly-000000-1200-77-nodesc-normal">
      <LineStyle>
        <color>ff000000</color>
        <width>1.2</width>
      </LineStyle>
      <PolyStyle>
        <color>4d000000</color>
        <fill>1</fill>
        <outline>1</outline>
      </PolyStyle>
      <BalloonStyle>
        <text><![CDATA[<h3>$[name]</h3>]]></text>
      </BalloonStyle>
    </Style>
    <Style id="poly-000000-1200-77-nodesc-highlight">
      <LineStyle>
        <color>ff000000</color>
        <width>1.8</width>
      </LineStyle>
      <PolyStyle>
        <color>4d000000</color>
        <fill>1</fill>
        <outline>1</outline>
      </PolyStyle>
      <BalloonStyle>
        <text><![CDATA[<h3>$[name]</h3>]]></text>
      </BalloonStyle>
    </Style>
    <StyleMap id="poly-000000-1200-77-nodesc">
      <Pair>
        <key>normal</key>
        <styleUrl>#poly-000000-1200-77-nodesc-normal</styleUrl>
      </Pair>
      <Pair>
        <key>highlight</key>
        <styleUrl>#poly-000000-1200-77-nodesc-highlight</styleUrl>
      </Pair>
    </StyleMap>
    <Placemark>
      <name>Bogor Tengah</name>
      <styleUrl>#poly-000000-1200-77-nodesc</styleUrl>
      <Polygon>
        <outerBoundaryIs>
          <LinearRing>
            <tessellate>1</tessellate>
            <coordinates>
              106.7875932,-6.5894885,0
              106.7867778,-6.5897443,0
              106.7860483,-6.5903199,0
              106.7852329,-6.5891688,0
              106.7851149,-6.5885187,0
              106.7842137,-6.5887212,0
              106.7837845,-6.5888171,0
              106.7836343,-6.5892114,0
              106.783409,-6.5892221,0
              106.7833661,-6.5890302,0
              106.7833554,-6.5886146,0
              106.7833768,-6.5882202,0
              106.7832802,-6.5875594,0
              106.7830871,-6.5868454,0
              106.7829691,-6.5867068,0
              106.7825721,-6.5871758,0
              106.7812847,-6.5882735,0
              106.7808663,-6.5884441,0
              106.7805873,-6.5887851,0
              106.780126,-6.5891795,0
              106.7798256,-6.5897337,0
              106.7795895,-6.5902559,0
              106.7795788,-6.5910766,0
              106.7798792,-6.5916414,0
              106.7801367,-6.5921104,0
              106.7805551,-6.5924728,0
              106.7808019,-6.5926859,0
              106.7811989,-6.5929843,0
              106.7816817,-6.5928351,0
              106.7824219,-6.5924728,0
              106.7827009,-6.5921743,0
              106.7831086,-6.5920251,0
              106.7836128,-6.5918653,0
              106.7842351,-6.5919612,0
              106.7846106,-6.5920891,0
              106.7847072,-6.5924514,0
              106.784557,-6.5929843,0
              106.784042,-6.5934639,0
              106.7832802,-6.5940821,0
              106.7826687,-6.5948921,0
              106.782497,-6.5953504,0
              106.782658,-6.5957127,0
              106.7829798,-6.5959792,0
              106.7830979,-6.5961923,0
              106.7829047,-6.5969597,0
              106.7826258,-6.5975565,0
              106.7823147,-6.5980468,0
              106.7824112,-6.598633,0
              106.7829262,-6.5991232,0
              106.7835056,-6.5993471,0
              106.7845141,-6.5993897,0
              106.7850398,-6.5988035,0
              106.7857693,-6.598164,0
              106.7868851,-6.5982706,0
              106.7877005,-6.5985904,0
              106.7882048,-6.5989421,0
              106.788591,-6.5993471,0
              106.7884623,-6.599752,0
              106.7879044,-6.5998799,0
              106.7876254,-6.5999439,0
              106.7877113,-6.6003702,0
              106.7880224,-6.6006686,0
              106.7883657,-6.6010843,0
              106.78887,-6.6013614,0
              106.7899536,-6.6015852,0
              106.7905008,-6.6017664,0
              106.791284,-6.6020754,0
              106.7916595,-6.6022566,0
              106.7914771,-6.6030772,0
              106.791005,-6.6039725,0
              106.7907314,-6.6043402,0
              106.7907448,-6.6045347,0
              106.7909728,-6.6046226,0
              106.7914449,-6.6044841,0
              106.7920779,-6.604143,0
              106.7923783,-6.6040897,0
              106.7925285,-6.6045373,0
              106.7924856,-6.6051129,0
              106.7924963,-6.6059974,0
              106.7924319,-6.6064557,0
              106.7921101,-6.6068607,0
              106.7920779,-6.6073296,0
              106.7922174,-6.6080757,0
              106.7927324,-6.6083421,0
              106.7930757,-6.6086938,0
              106.793022,-6.6082462,0
              106.7929684,-6.6077666,0
              106.7929199,-6.6074316,0
              106.7932366,-6.6070952,0
              106.7937301,-6.606509,0
              106.7944061,-6.6057949,0
              106.7945292,-6.6056837,0
              106.7949425,-6.6059548,0
              106.7954682,-6.6063278,0
              106.7957738,-6.606579,0
              106.7962729,-6.6068074,0
              106.7970612,-6.6071332,0
              106.7976891,-6.6073829,0
              106.7984774,-6.60773,0
              106.7992448,-6.6082036,0
              106.8003069,-6.608811,0
              106.8011438,-6.6093119,0
              106.8017875,-6.6096743,0
              106.8022166,-6.6099301,0
              106.8025922,-6.6103884,0
              106.8030106,-6.6109106,0
              106.8034397,-6.6113795,0
              106.8036702,-6.611652,0
              106.804062,-6.6111877,0
              106.8043139,-6.6108846,0
              106.8047594,-6.6108253,0
              106.8055155,-6.6107994,0
              106.8049096,-6.6103031,0
              106.8045431,-6.6099585,0
              106.8047147,-6.6096601,0
              106.8053584,-6.6095962,0
              106.805852,-6.6093617,0
              106.8064223,-6.6093333,0
              106.8067317,-6.608978,0
              106.8066888,-6.6088075,0
              106.807118,-6.6083599,0
              106.8061434,-6.6074895,0
              106.8055962,-6.6067541,0
              106.8051868,-6.60593,0
              106.8044697,-6.6055285,0
              106.8040281,-6.60512,0
              106.8037831,-6.604175,0
              106.8032985,-6.6034787,0
              106.8028067,-6.6032371,0
              106.8025046,-6.6026687,0
              106.8022256,-6.6023277,0
              106.8034719,-6.6018729,0
              106.8047594,-6.6014573,0
              106.8049293,-6.6014111,0
              106.8053709,-6.6017877,0
              106.8057572,-6.6026723,0
              106.8061649,-6.603397,0
              106.8067871,-6.604175,0
              106.8069463,-6.6044379,0
              106.8097161,-6.6025124,0
              106.8115936,-6.6012548,0
              106.8134497,-6.6000505,0
              106.814705,-6.5990913,0
              106.8156917,-6.5984707,0
              106.8157989,-6.5980231,0
              106.8157779,-6.5972048,0
              106.8159174,-6.5964268,0
              106.8158852,-6.5955102,0
              106.8161534,-6.5947109,0
              106.816271,-6.5943994,0
              106.8160779,-6.5938452,0
              106.8156702,-6.5935255,0
              106.8155097,-6.592995,0
              106.8157672,-6.5921424,0
              106.8158204,-6.5918202,0
              106.8156273,-6.59133,0
              106.8154127,-6.5916284,0
              106.8147046,-6.5917989,0
              106.8122481,-6.591748,0
              106.8097483,-6.5916841,0
              106.8088896,-6.5916497,0
              106.8088256,-6.5910872,0
              106.8087823,-6.5906479,0
              106.809126,-6.5900854,0
              106.8094693,-6.5896697,0
              106.8098127,-6.5893713,0
              106.8111855,-6.5884523,0
              106.8114649,-6.5876234,0
              106.8116795,-6.5868134,0
              106.8117864,-6.5861928,0
              106.8116576,-6.5858944,0
              106.8099736,-6.585673,0
              106.8084604,-6.5854468,0
              106.8078382,-6.5852549,0
              106.8078382,-6.5849778,0
              106.8070228,-6.5848286,0
              106.8060572,-6.5847007,0
              106.8041371,-6.5841169,0
              106.8027209,-6.5836479,0
              106.8016154,-6.5833578,0
              106.8011219,-6.5836775,0
              106.8007142,-6.5844875,0
              106.7999632,-6.5844236,0
              106.8000276,-6.583507,0
              106.7994482,-6.5833791,0
              106.7992336,-6.5835496,0
              106.7991478,-6.5831659,0
              106.7988903,-6.5828036,0
              106.7982251,-6.5828036,0
              106.7982684,-6.5826141,0
              106.7980109,-6.5813245,0
              106.7979462,-6.5811196,0
              106.7987727,-6.5803333,0
              106.7991589,-6.5799496,0
              106.7976462,-6.5792461,0
              106.7973672,-6.5790117,0
              106.7969166,-6.5789157,0
              106.7964553,-6.578937,0
              106.796348,-6.5791822,0
              106.7960583,-6.5792781,0
              106.7959081,-6.5794486,0
              106.7959081,-6.5799389,0
              106.7959081,-6.5804079,0
              106.7957364,-6.5804931,0
              106.7955648,-6.5807063,0
              106.7953395,-6.5808981,0
              106.7950712,-6.5809941,0
              106.7951142,-6.5814524,0
              106.7941164,-6.5817508,0
              106.7933546,-6.5819853,0
              106.7931508,-6.582305,0
              106.7928396,-6.5828486,0
              106.7923676,-6.5830724,0
              106.7915951,-6.583147,0
              106.7917989,-6.5824436,0
              106.792271,-6.5817828,0
              106.7922496,-6.5814311,0
              106.7921637,-6.581026,0
              106.7920457,-6.5804185,0
              106.7918419,-6.579811,0
              106.7914342,-6.5793953,0
              106.7912196,-6.5790543,0
              106.7911659,-6.5786493,0
              106.7914127,-6.5775941,0
              106.7916809,-6.576848,0
              106.7918419,-6.5759954,0
              106.7919599,-6.5752813,0
              106.7918419,-6.5748976,0
              106.7903935,-6.5749615,0
              106.789342,-6.5750468,0
              106.7888807,-6.5750468,0
              106.7888378,-6.5740556,0
              106.7888163,-6.5737145,0
              106.7885266,-6.5737145,0
              106.7885266,-6.5734694,0
              106.787604,-6.5732669,0
              106.7876683,-6.5745139,0
              106.7875932,-6.5756756,0
              106.7875718,-6.5769226,0
              106.7875932,-6.5782869,0
              106.7876254,-6.5793953,0
              106.7876362,-6.5828379,0
              106.7875825,-6.5844047,0
              106.7875825,-6.5851934,0
              106.7876254,-6.5871864,0
              106.7876254,-6.5881456,0
              106.7876898,-6.5890409,0
              106.7875932,-6.5894885,0
            </coordinates>
          </LinearRing>
        </outerBoundaryIs>
      </Polygon>
    </Placemark>
  </Document>
</kml>
