<?xml version="1.0" encoding="UTF-8"?>
<kml xmlns="http://www.opengis.net/kml/2.2">
  <Document>
    <name>bogor_selatan</name>
    <Style id="poly-000000-1200-77-nodesc-normal">
      <LineStyle>
        <color>ff000000</color>
        <width>1.2</width>
      </LineStyle>
      <PolyStyle>
        <color>4d000000</color>
        <fill>1</fill>
        <outline>1</outline>
      </PolyStyle>
      <BalloonStyle>
        <text><![CDATA[<h3>$[name]</h3>]]></text>
      </BalloonStyle>
    </Style>
    <Style id="poly-000000-1200-77-nodesc-highlight">
      <LineStyle>
        <color>ff000000</color>
        <width>1.8</width>
      </LineStyle>
      <PolyStyle>
        <color>4d000000</color>
        <fill>1</fill>
        <outline>1</outline>
      </PolyStyle>
      <BalloonStyle>
        <text><![CDATA[<h3>$[name]</h3>]]></text>
      </BalloonStyle>
    </Style>
    <StyleMap id="poly-000000-1200-77-nodesc">
      <Pair>
        <key>normal</key>
        <styleUrl>#poly-000000-1200-77-nodesc-normal</styleUrl>
      </Pair>
      <Pair>
        <key>highlight</key>
        <styleUrl>#poly-000000-1200-77-nodesc-highlight</styleUrl>
      </Pair>
    </StyleMap>
    <Placemark>
      <name>Bogor Selatan</name>
      <styleUrl>#poly-000000-1200-77-nodesc</styleUrl>
      <Polygon>
        <outerBoundaryIs>
          <LinearRing>
            <tessellate>1</tessellate>
            <coordinates>
              106.7945292,-6.6056837,0
              106.7938426,-6.6064085,0
              106.7929199,-6.6074316,0
              106.7930701,-6.6085826,0
              106.7933061,-6.6090089,0
              106.7937138,-6.6099255,0
              106.7944863,-6.6105649,0
              106.7945936,-6.6114388,0
              106.794658,-6.6124833,0
              106.794615,-6.6135064,0
              106.7951515,-6.6139966,0
              106.7956879,-6.6148705,0
              106.7955806,-6.615105,0
              106.7950657,-6.6152968,0
              106.7954304,-6.6156592,0
              106.7958596,-6.6162133,0
              106.7964604,-6.6167462,0
              106.7963317,-6.6169807,0
              106.7959025,-6.6173217,0
              106.7953231,-6.6177054,0
              106.7949369,-6.6181317,0
              106.7949154,-6.6189203,0
              106.7940571,-6.6191548,0
              106.7939928,-6.6188777,0
              106.7921474,-6.6194106,0
              106.789315,-6.6196663,0
              106.7886283,-6.6197516,0
              106.7886498,-6.6188777,0
              106.7886713,-6.6184301,0
              106.7883709,-6.618494,0
              106.7879202,-6.6196663,0
              106.7878344,-6.6190056,0
              106.7876842,-6.6184088,0
              106.7874696,-6.6186432,0
              106.7871478,-6.6186432,0
              106.7871907,-6.6183235,0
              106.7885211,-6.6173643,0
              106.789036,-6.6163199,0
              106.7895081,-6.6157871,0
              106.7894223,-6.6153394,0
              106.7889502,-6.615041,0
              106.789036,-6.6146147,0
              106.7893579,-6.6145295,0
              106.789551,-6.6138261,0
              106.7896583,-6.6130588,0
              106.7901089,-6.612803,0
              106.790066,-6.6121209,0
              106.7902377,-6.6117372,0
              106.7902377,-6.611183,0
              106.7898729,-6.6111404,0
              106.7894652,-6.6112896,0
              106.7891862,-6.6111404,0
              106.7892721,-6.6106715,0
              106.7897227,-6.6103091,0
              106.7897012,-6.6097336,0
              106.7893794,-6.6094352,0
              106.7888429,-6.6092007,0
              106.7882636,-6.6090302,0
              106.7878988,-6.6087105,0
              106.7877057,-6.6084121,0
              106.7872121,-6.6084334,0
              106.786547,-6.6090089,0
              106.7857316,-6.6095418,0
              106.7842939,-6.6106928,0
              106.7817619,-6.6120143,0
              106.7816761,-6.6129948,0
              106.7824056,-6.6136129,0
              106.7828133,-6.6149131,0
              106.7835643,-6.6157231,0
              106.7838218,-6.6164265,0
              106.7838218,-6.6174709,0
              106.7836716,-6.618494,0
              106.784251,-6.6187711,0
              106.7842081,-6.6201139,0
              106.784487,-6.6202631,0
              106.7844656,-6.6206894,0
              106.7844012,-6.6211157,0
              106.785238,-6.6213502,0
              106.785753,-6.6216273,0
              106.7856672,-6.622288,0
              106.7862465,-6.6229488,0
              106.7864182,-6.6237374,0
              106.7863324,-6.6247392,0
              106.7867615,-6.6249097,0
              106.7868688,-6.6246326,0
              106.7872121,-6.624249,0
              106.7875555,-6.6244408,0
              106.7875555,-6.6248458,0
              106.7878344,-6.6251015,0
              106.7882207,-6.6248884,0
              106.7888858,-6.6252294,0
              106.7891862,-6.6258902,0
              106.7898514,-6.6266788,0
              106.7907097,-6.6272116,0
              106.7898514,-6.6284905,0
              106.7889502,-6.6298972,0
              106.7886069,-6.6310056,0
              106.7883065,-6.6318581,0
              106.7874053,-6.6323271,0
              106.7865899,-6.6334354,0
              106.7862036,-6.6350979,0
              106.785517,-6.6360783,0
              106.7852595,-6.6373998,0
              106.7852595,-6.6392754,0
              106.7847874,-6.6404263,0
              106.7839291,-6.6421741,0
              106.7837575,-6.6434102,0
              106.7829421,-6.6449448,0
              106.7818692,-6.6454137,0
              106.7813542,-6.6456269,0
              106.7808392,-6.6463941,0
              106.7797234,-6.6475877,0
              106.7784789,-6.6490796,0
              106.7761185,-6.6504863,0
              106.7746594,-6.6510405,0
              106.7740586,-6.6514241,0
              106.7731574,-6.6523192,0
              106.7721703,-6.6529586,0
              106.7715266,-6.6536407,0
              106.7750886,-6.6560277,0
              106.7795088,-6.6565392,0
              106.7811825,-6.657136,0
              106.7816975,-6.6580738,0
              106.783972,-6.6592673,0
              106.7858603,-6.6594378,0
              106.7868044,-6.6592673,0
              106.7874482,-6.6587984,0
              106.7887786,-6.6575196,0
              106.789551,-6.6562409,0
              106.7903664,-6.6547916,0
              106.7905381,-6.6531718,0
              106.7921689,-6.6536833,0
              106.7926409,-6.6526603,0
              106.793628,-6.6519782,0
              106.7948296,-6.6492928,0
              106.7968037,-6.6475024,0
              106.7992499,-6.645499,0
              106.8011382,-6.6484829,0
              106.802254,-6.6478435,0
              106.8029835,-6.6482271,0
              106.8034985,-6.6478008,0
              106.8054726,-6.6482271,0
              106.8046143,-6.6506568,0
              106.8039277,-6.6514667,0
              106.8047431,-6.651552,0
              106.8058159,-6.6518504,0
              106.8063738,-6.6511683,0
              106.8072751,-6.65006,0
              106.8083909,-6.6488239,0
              106.8090346,-6.6475877,0
              106.8095067,-6.6461384,0
              106.8104079,-6.646181,0
              106.8105795,-6.6487812,0
              106.8100646,-6.6504011,0
              106.8089059,-6.6515093,0
              106.808348,-6.652575,0
              106.8086484,-6.6538964,0
              106.8086913,-6.6552178,0
              106.8086913,-6.6563261,0
              106.8096354,-6.6565819,0
              106.8106225,-6.6573491,0
              106.8116095,-6.6584148,0
              106.812897,-6.659182,0
              106.8132403,-6.6601624,0
              106.814399,-6.6605461,0
              106.8154719,-6.661697,0
              106.8162873,-6.6626347,0
              106.8163302,-6.6637856,0
              106.8161156,-6.6652775,0
              106.816931,-6.66613,0
              106.8183901,-6.6663431,0
              106.8183901,-6.6676219,0
              106.8186047,-6.6690285,0
              106.8191626,-6.6700515,0
              106.818991,-6.6718418,0
              106.8194201,-6.6720975,0
              106.8209221,-6.6729074,0
              106.8220379,-6.6735894,0
              106.82251,-6.6748255,0
              106.8238833,-6.6748681,0
              106.8249133,-6.6756353,0
              106.8259862,-6.6761468,0
              106.8263295,-6.6770419,0
              106.827059,-6.6772124,0
              106.828089,-6.6781075,0
              106.829634,-6.6788322,0
              106.8318656,-6.6785338,0
              106.8331101,-6.6776387,0
              106.8350842,-6.6780223,0
              106.8373158,-6.6787043,0
              106.8398478,-6.6788322,0
              106.8404486,-6.6795568,0
              106.8424656,-6.6789174,0
              106.8445685,-6.6780223,0
              106.8456843,-6.6770419,0
              106.8482163,-6.6763173,0
              106.8472722,-6.67295,0
              106.8463709,-6.6679203,0
              106.8452551,-6.6633594,0
              106.8450406,-6.6606313,0
              106.8463709,-6.6582017,0
              106.846607,-6.6573704,0
              106.8476584,-6.6546637,0
              106.8462422,-6.6541948,0
              106.8447402,-6.6525324,0
              106.8440964,-6.6518504,0
              106.8425515,-6.6496764,0
              106.8419077,-6.648355,0
              106.8406203,-6.6476729,0
              106.8392899,-6.6470335,0
              106.8382599,-6.6457974,0
              106.839762,-6.6445185,0
              106.8384531,-6.6432824,0
              106.8388691,-6.6430525,0
              106.8380239,-6.6419609,0
              106.8367365,-6.64081,0
              106.835421,-6.6397146,0
              106.8341913,-6.6387471,0
              106.8332901,-6.6382782,0
              106.8323889,-6.6380224,0
              106.8314876,-6.6372978,0
              106.8310156,-6.6374683,0
              106.8274024,-6.6351831,0
              106.8257287,-6.6335206,0
              106.8243125,-6.6299399,0
              106.82251,-6.6271264,0
              106.8207934,-6.6251655,0
              106.8177035,-6.6224799,0
              106.8155577,-6.6209026,0
              106.8130257,-6.6185153,0
              106.8101933,-6.6163412,0
              106.8080046,-6.6136982,0
              106.8055155,-6.6107994,0
              106.8043139,-6.6108846,0
              106.8036702,-6.611652,0
              106.8020394,-6.6098189,0
              106.7998507,-6.6085826,0
              106.7984774,-6.60773,0
              106.7970612,-6.6071332,0
              106.7957738,-6.606579,0
              106.7945292,-6.6056837,0
            </coordinates>
          </LinearRing>
        </outerBoundaryIs>
      </Polygon>
    </Placemark>
  </Document>
</kml>
