<?xml version="1.0" encoding="UTF-8"?>
<kml xmlns="http://www.opengis.net/kml/2.2">
  <Document>
    <name>bogor_barat</name>
    <Style id="poly-000000-1200-77-nodesc-normal">
      <LineStyle>
        <color>ff000000</color>
        <width>1.2</width>
      </LineStyle>
      <PolyStyle>
        <color>4d000000</color>
        <fill>1</fill>
        <outline>1</outline>
      </PolyStyle>
      <BalloonStyle>
        <text><![CDATA[<h3>$[name]</h3>]]></text>
      </BalloonStyle>
    </Style>
    <Style id="poly-000000-1200-77-nodesc-highlight">
      <LineStyle>
        <color>ff000000</color>
        <width>1.8</width>
      </LineStyle>
      <PolyStyle>
        <color>4d000000</color>
        <fill>1</fill>
        <outline>1</outline>
      </PolyStyle>
      <BalloonStyle>
        <text><![CDATA[<h3>$[name]</h3>]]></text>
      </BalloonStyle>
    </Style>
    <StyleMap id="poly-000000-1200-77-nodesc">
      <Pair>
        <key>normal</key>
        <styleUrl>#poly-000000-1200-77-nodesc-normal</styleUrl>
      </Pair>
      <Pair>
        <key>highlight</key>
        <styleUrl>#poly-000000-1200-77-nodesc-highlight</styleUrl>
      </Pair>
    </StyleMap>
    <Placemark>
      <name>Bogor Barat</name>
      <styleUrl>#poly-000000-1200-77-nodesc</styleUrl>
      <Polygon>
        <outerBoundaryIs>
          <LinearRing>
            <tessellate>1</tessellate>
            <coordinates>
              106.7644497,-6.5422747,0
              106.7648789,-6.5428503,0
              106.7652651,-6.5435538,0
              106.7652866,-6.5442573,0
              106.7647501,-6.5449394,0
              106.7644112,-6.5458693,0
              106.7630121,-6.5466235,0
              106.7628619,-6.5470925,0
              106.7604371,-6.5471352,0
              106.760759,-6.5499278,0
              106.7596432,-6.5492456,0
              106.7597505,-6.5489898,0
              106.7588493,-6.5481158,0
              106.7592999,-6.549608,0
              106.7581626,-6.5502902,0
              106.7578408,-6.5506099,0
              106.7577764,-6.55142,0
              106.7568108,-6.551889,0
              106.7560383,-6.551889,0
              106.7554804,-6.5510576,0
              106.7553517,-6.5493948,0
              106.7549225,-6.5485208,0
              106.754665,-6.5483289,0
              106.7538111,-6.5491095,0
              106.7537896,-6.5502394,0
              106.753103,-6.5508789,0
              106.7518155,-6.5510281,0
              106.7509143,-6.5502607,0
              106.7503091,-6.5495014,0
              106.7501203,-6.5476173,0
              106.7496439,-6.5470925,0
              106.7490904,-6.5476173,0
              106.7483608,-6.5480437,0
              106.7479102,-6.547596,0
              106.7482535,-6.5466367,0
              106.7483608,-6.5462317,0
              106.7475669,-6.5455708,0
              106.7469232,-6.5447181,0
              106.7469403,-6.543639,0
              106.7458888,-6.5438522,0
              106.7446486,-6.5438227,0
              106.743211,-6.5435882,0
              106.7418377,-6.54297,0
              106.7409536,-6.5426371,0
              106.740739,-6.5427863,0
              106.7408077,-6.5437375,0
              106.7408292,-6.5441851,0
              106.7402669,-6.5440228,0
              106.7400309,-6.5445131,0
              106.7400309,-6.5451952,0
              106.7397949,-6.5452805,0
              106.7397734,-6.5458135,0
              106.7393872,-6.5457282,0
              106.7393657,-6.5463464,0
              106.7396232,-6.546389,0
              106.7395803,-6.5471565,0
              106.7394086,-6.5471991,0
              106.7391941,-6.5486061,0
              106.7374131,-6.5497999,0
              106.7377135,-6.5509723,0
              106.7380139,-6.5509723,0
              106.7382499,-6.5505247,0
              106.7381855,-6.55142,0
              106.7378422,-6.5516545,0
              106.7374603,-6.552499,0
              106.7368122,-6.5527417,0
              106.7369625,-6.5538076,0
              106.7375891,-6.5542471,0
              106.7377778,-6.5548521,0
              106.7372843,-6.55498,0
              106.7359583,-6.5541618,0
              106.7355677,-6.5546389,0
              106.7355935,-6.5558885,0
              106.7355506,-6.5568904,0
              106.7354175,-6.5584334,0
              106.7354175,-6.5589664,0
              106.7356965,-6.5593074,0
              106.7356106,-6.5597125,0
              106.7349454,-6.559883,0
              106.7351643,-6.5619213,0
              106.7355291,-6.5643514,0
              106.7356106,-6.5652975,0
              106.7362758,-6.5663847,0
              106.7399236,-6.5661076,0
              106.7397305,-6.5666831,0
              106.7397734,-6.5669603,0
              106.7406317,-6.5669603,0
              106.7402498,-6.5675703,0
              106.7401382,-6.5679621,0
              106.7403313,-6.5681753,0
              106.7418977,-6.5681327,0
              106.7420908,-6.5685377,0
              106.7419192,-6.5691559,0
              106.74143,-6.5700004,0
              106.7410652,-6.5702775,0
              106.7404215,-6.5703202,0
              106.7384645,-6.571117,0
              106.7387263,-6.5719829,0
              106.7391082,-6.5724387,0
              106.7406103,-6.5731634,0
              106.7404859,-6.5738161,0
              106.740503,-6.5742719,0
              106.7409365,-6.575159,0
              106.7411896,-6.5754443,0
              106.7420737,-6.5757559,0
              106.7430179,-6.5762462,0
              106.7442409,-6.5763528,0
              106.7447087,-6.5763183,0
              106.7448803,-6.5757854,0
              106.7442366,-6.5753164,0
              106.7442366,-6.5741653,0
              106.7444726,-6.5735045,0
              106.744773,-6.574144,0
              106.7452666,-6.5743785,0
              106.7456743,-6.5743145,0
              106.746082,-6.5735898,0
              106.7464038,-6.5736537,0
              106.7465326,-6.5733979,0
              106.7468115,-6.5734192,0
              106.7469188,-6.5728224,0
              106.7487256,-6.5723452,0
              106.7499658,-6.5722894,0
              106.7509743,-6.5730142,0
              106.7517039,-6.5736324,0
              106.7529484,-6.5757001,0
              106.7538754,-6.5764167,0
              106.7542359,-6.5764888,0
              106.7550942,-6.5763609,0
              106.7553302,-6.5769791,0
              106.7558023,-6.5771923,0
              106.7563387,-6.5772775,0
              106.7565533,-6.5777891,0
              106.7565533,-6.578322,0
              106.7567679,-6.5788762,0
              106.7578622,-6.5790041,0
              106.7582099,-6.5796568,0
              106.7584201,-6.5802831,0
              106.7588536,-6.5807439,0
              106.7594973,-6.5811063,0
              106.760184,-6.5813408,0
              106.7604586,-6.5820311,0
              106.7608277,-6.5824919,0
              106.7617504,-6.5822787,0
              106.7618577,-6.5828116,0
              106.7625443,-6.5830461,0
              106.762952,-6.5830461,0
              106.7626302,-6.5836216,0
              106.7629262,-6.5847169,0
              106.7633983,-6.5851859,0
              106.7636387,-6.5857959,0
              106.7643039,-6.5873306,0
              106.7637202,-6.5872748,0
              106.7645785,-6.5881488,0
              106.7651407,-6.5890146,0
              106.765308,-6.5900885,0
              106.7651578,-6.590387,0
              106.7660161,-6.5912609,0
              106.7664711,-6.5922759,0
              106.7664282,-6.5931072,0
              106.7666642,-6.5939599,0
              106.7664453,-6.594842,0
              106.7675826,-6.5956306,0
              106.7677757,-6.5953109,0
              106.7694966,-6.595452,0
              106.7703764,-6.5960488,0
              106.7700931,-6.5964619,0
              106.7699858,-6.5969096,0
              106.7705266,-6.5969654,0
              106.7709514,-6.5973146,0
              106.771342,-6.5982656,0
              106.7717883,-6.5986788,0
              106.7725865,-6.5995019,0
              106.7736165,-6.5996085,0
              106.7738267,-6.6004906,0
              106.774213,-6.6002561,0
              106.7745134,-6.6005972,0
              106.7738911,-6.6012366,0
              106.7744919,-6.6015137,0
              106.7747752,-6.6032534,0
              106.7753502,-6.60356,0
              106.7755219,-6.6043273,0
              106.7751357,-6.6051373,0
              106.7754619,-6.6065999,0
              106.7760154,-6.6068425,0
              106.7773565,-6.607141,0
              106.7789873,-6.6072902,0
              106.7793457,-6.6077083,0
              106.7793242,-6.6102235,0
              106.7797963,-6.6111827,0
              106.7800709,-6.611713,0
              106.7799207,-6.6128534,0
              106.7815129,-6.6121205,0
              106.7829033,-6.6114146,0
              106.7841522,-6.6107351,0
              106.7855899,-6.6097332,0
              106.786547,-6.6090089,0
              106.7872121,-6.6084334,0
              106.7877057,-6.6084121,0
              106.7880103,-6.6088035,0
              106.7884223,-6.6090725,0
              106.789169,-6.6093258,0
              106.7894908,-6.6094963,0
              106.7897227,-6.6103091,0
              106.7892721,-6.6106715,0
              106.7891862,-6.6111404,0
              106.7894652,-6.6112896,0
              106.7900745,-6.6111827,0
              106.7902377,-6.611183,0
              106.7902462,-6.61195,0
              106.790066,-6.6121209,0
              106.7901089,-6.612803,0
              106.7896583,-6.6130588,0
              106.7895166,-6.614252,0
              106.7893579,-6.6145295,0
              106.789036,-6.6146147,0
              106.7889502,-6.615041,0
              106.7894223,-6.6153394,0
              106.7895081,-6.6157871,0
              106.789036,-6.6163199,0
              106.7885211,-6.6173643,0
              106.7871907,-6.6183235,0
              106.7871478,-6.6186432,0
              106.7874696,-6.6186432,0
              106.7876842,-6.6184088,0
              106.7879202,-6.6196663,0
              106.7883709,-6.618494,0
              106.7886713,-6.6184301,0
              106.7886283,-6.6197516,0
              106.7898385,-6.619602,0
              106.7912976,-6.6194741,0
              106.7925422,-6.6192823,0
              106.7939928,-6.6188777,0
              106.7940571,-6.6191548,0
              106.7949154,-6.6189203,0
              106.7949369,-6.6181317,0
              106.7953231,-6.6177054,0
              106.7963317,-6.6169807,0
              106.7964604,-6.6167462,0
              106.7958596,-6.6162133,0
              106.7950657,-6.6152968,0
              106.7955806,-6.615105,0
              106.7956879,-6.6148705,0
              106.7951515,-6.6139966,0
              106.794615,-6.6135064,0
              106.794658,-6.6124833,0
              106.7945936,-6.6114388,0
              106.7944863,-6.6105649,0
              106.7937138,-6.6099255,0
              106.7933061,-6.6090089,0
              106.7927324,-6.6083421,0
              106.7922174,-6.6080757,0
              106.7920779,-6.6073296,0
              106.7920916,-6.6065786,0
              106.7924319,-6.6064557,0
              106.7924963,-6.6059974,0
              106.7924856,-6.6051129,0
              106.7924563,-6.6044045,0
              106.7923783,-6.6040897,0
              106.7920779,-6.604143,0
              106.7912118,-6.6046176,0
              106.7907448,-6.6045347,0
              106.7908041,-6.6041913,0
              106.7912976,-6.6034026,0
              106.7916839,-6.6027205,0
              106.7916595,-6.6022566,0
              106.7907612,-6.6019106,0
              106.7893004,-6.6015392,0
              106.7883657,-6.6010843,0
              106.7877113,-6.6003702,0
              106.7876254,-6.5999439,0
              106.7884623,-6.599752,0
              106.788591,-6.5993471,0
              106.7875425,-6.5985001,0
              106.7857693,-6.598164,0
              106.7849247,-6.5990756,0
              106.7843668,-6.5994593,0
              106.7835056,-6.5993471,0
              106.7828218,-6.598969,0
              106.7824112,-6.598633,0
              106.7823147,-6.5980468,0
              106.7827772,-6.5972121,0
              106.7830991,-6.5964021,0
              106.7829798,-6.5959792,0
              106.782497,-6.5953504,0
              106.7828416,-6.594569,0
              106.7837231,-6.5937041,0
              106.7843882,-6.5931712,0
              106.7846887,-6.5926383,0
              106.7846106,-6.5920891,0
              106.7836128,-6.5918653,0
              106.7827009,-6.5921743,0
              106.7811989,-6.5929843,0
              106.7804186,-6.5923825,0
              106.7798792,-6.5916414,0
              106.7793886,-6.5907412,0
              106.7798256,-6.5897337,0
              106.7805873,-6.5887851,0
              106.7815987,-6.5879701,0
              106.7828218,-6.5869683,0
              106.7829691,-6.5867068,0
              106.7832802,-6.5875594,0
              106.7834441,-6.5883964,0
              106.783409,-6.5892221,0
              106.7836343,-6.5892114,0
              106.7839162,-6.5888014,0
              106.7851149,-6.5885187,0
              106.7852329,-6.5891688,0
              106.7860483,-6.5903199,0
              106.7867778,-6.5897443,0
              106.7875932,-6.5894885,0
              106.7876898,-6.5890409,0
              106.7876498,-6.5870322,0
              106.7875825,-6.5851934,0
              106.7875832,-6.5846752,0
              106.787584,-6.5841571,0
              106.7876062,-6.5832392,0
              106.7876337,-6.5827157,0
              106.787604,-6.5732669,0
              106.7863194,-6.5732619,0
              106.7850964,-6.5731979,0
              106.7847172,-6.5731938,0
              106.7846533,-6.5744923,0
              106.7844387,-6.5753237,0
              106.7841908,-6.5765528,0
              106.7836587,-6.5755214,0
              106.7828819,-6.5743358,0
              106.7823454,-6.5730142,0
              106.7817232,-6.5717992,0
              106.7801825,-6.569702,0
              106.7796032,-6.5688493,0
              106.7793886,-6.5675277,0
              106.779174,-6.5662486,0
              106.7787449,-6.5653533,0
              106.778216,-6.5646653,0
              106.7768642,-6.5641324,0
              106.776199,-6.5630026,0
              106.7760841,-6.5615163,0
              106.7761485,-6.5605357,0
              106.7760627,-6.5600667,0
              106.7753288,-6.5582416,0
              106.7756625,-6.5568206,0
              106.7752548,-6.5555842,0
              106.7746326,-6.5550299,0
              106.7738601,-6.5533672,0
              106.7738911,-6.5522087,0
              106.7734524,-6.5519602,0
              106.7737957,-6.5516404,0
              106.7726585,-6.5507238,0
              106.7723891,-6.5508018,0
              106.7717668,-6.5500983,0
              106.7717143,-6.5488052,0
              106.7708989,-6.5471637,0
              106.7702433,-6.5463251,0
              106.7695781,-6.5461759,0
              106.7695686,-6.5448401,0
              106.768839,-6.5431986,0
              106.7684237,-6.5418828,0
              106.7682167,-6.5413013,0
              106.7671749,-6.5403347,0
              106.7663809,-6.54042,0
              106.7649647,-6.5396952,0
              106.7642781,-6.5384161,0
              106.7647835,-6.5376133,0
              106.7650505,-6.5374994,0
              106.7656084,-6.535794,0
              106.7650291,-6.5356021,0
              106.7652985,-6.5345435,0
              106.7652437,-6.5340246,0
              106.7646043,-6.5336753,0
              106.7643424,-6.5343657,0
              106.7643468,-6.5355513,0
              106.7641708,-6.536732,0
              106.7641537,-6.5380029,0
              106.7639562,-6.5392475,0
              106.7640678,-6.5402413,0
              106.7643039,-6.5409022,0
              106.7643468,-6.5417762,0
              106.7644497,-6.5422747,0
            </coordinates>
          </LinearRing>
        </outerBoundaryIs>
      </Polygon>
    </Placemark>
  </Document>
</kml>
