<?xml version="1.0" encoding="UTF-8"?>
<kml xmlns="http://www.opengis.net/kml/2.2">
  <Document>
    <name>bogor_utara</name>
    <Style id="poly-000000-1200-77-nodesc-normal">
      <LineStyle>
        <color>ff000000</color>
        <width>1.2</width>
      </LineStyle>
      <PolyStyle>
        <color>4d000000</color>
        <fill>1</fill>
        <outline>1</outline>
      </PolyStyle>
      <BalloonStyle>
        <text><![CDATA[<h3>$[name]</h3>]]></text>
      </BalloonStyle>
    </Style>
    <Style id="poly-000000-1200-77-nodesc-highlight">
      <LineStyle>
        <color>ff000000</color>
        <width>1.8</width>
      </LineStyle>
      <PolyStyle>
        <color>4d000000</color>
        <fill>1</fill>
        <outline>1</outline>
      </PolyStyle>
      <BalloonStyle>
        <text><![CDATA[<h3>$[name]</h3>]]></text>
      </BalloonStyle>
    </Style>
    <StyleMap id="poly-000000-1200-77-nodesc">
      <Pair>
        <key>normal</key>
        <styleUrl>#poly-000000-1200-77-nodesc-normal</styleUrl>
      </Pair>
      <Pair>
        <key>highlight</key>
        <styleUrl>#poly-000000-1200-77-nodesc-highlight</styleUrl>
      </Pair>
    </StyleMap>
    <Placemark>
      <name>Bogor Utara</name>
      <styleUrl>#poly-000000-1200-77-nodesc</styleUrl>
      <Polygon>
        <outerBoundaryIs>
          <LinearRing>
            <tessellate>1</tessellate>
            <coordinates>
              106.8179233,-6.5974476,0
              106.8183524,-6.6023075,0
              106.8186957,-6.6042046,0
              106.8199617,-6.604439,0
              106.8210561,-6.6046948,0
              106.822365,-6.6051211,0
              106.823352,-6.6050572,0
              106.8247683,-6.6048014,0
              106.8253476,-6.605313,0
              106.8263132,-6.6050359,0
              106.8264205,-6.6043964,0
              106.8271286,-6.6041832,0
              106.8276865,-6.6037996,0
              106.8274934,-6.6032667,0
              106.8269569,-6.6029683,0
              106.8264849,-6.6030322,0
              106.826399,-6.6027551,0
              106.8265278,-6.6021796,0
              106.8263776,-6.6018172,0
              106.8258841,-6.6016467,0
              106.8256695,-6.6008367,0
              106.8251974,-6.6006875,0
              106.8249399,-6.6003678,0
              106.8249614,-6.599771,0
              106.8246181,-6.5993447,0
              106.8245322,-6.5986199,0
              106.8247897,-6.5979165,0
              106.8249185,-6.5977673,0
              106.8249185,-6.5963605,0
              106.8276221,-6.5962752,0
              106.8287379,-6.5963178,0
              106.8298537,-6.5962752,0
              106.8305833,-6.5965736,0
              106.8312056,-6.5971492,0
              106.831506,-6.5978313,0
              106.8316776,-6.5987265,0
              106.832257,-6.5967442,0
              106.8326003,-6.5955931,0
              106.8334586,-6.5934829,0
              106.8338663,-6.592076,0
              106.8343384,-6.5907331,0
              106.8348104,-6.5891344,0
              106.8360979,-6.5855107,0
              106.8376214,-6.5810556,0
              106.8387372,-6.5778155,0
              106.8395097,-6.575492,0
              106.8396813,-6.5747886,0
              106.8388659,-6.5754494,0
              106.8382651,-6.575556,0
              106.8381149,-6.5761742,0
              106.8382437,-6.5765792,0
              106.8376643,-6.5771974,0
              106.8372137,-6.5779861,0
              106.8368489,-6.5768137,0
              106.8365056,-6.5761955,0
              106.8366987,-6.5756199,0
              106.8363554,-6.5752149,0
              106.8359262,-6.5750657,0
              106.8359048,-6.5739359,0
              106.8356688,-6.573062,0
              106.8353898,-6.5722519,0
              106.8354113,-6.5715272,0
              106.8351323,-6.5708877,0
              106.8350679,-6.5695873,0
              106.8348319,-6.5680099,0
              106.8344886,-6.5669014,0
              106.8338449,-6.5659421,0
              106.8332655,-6.5656863,0
              106.8328793,-6.5650468,0
              106.8329436,-6.5642794,0
              106.8328578,-6.5635546,0
              106.8323643,-6.5628085,0
              106.8315489,-6.5617427,0
              106.8306477,-6.560954,0
              106.829961,-6.5604637,0
              106.8300683,-6.5591633,0
              106.8301327,-6.5583319,0
              106.8303902,-6.557799,0
              106.8300254,-6.5570529,0
              106.8296821,-6.5564134,0
              106.8296177,-6.555582,0
              106.8297035,-6.5548572,0
              106.8300468,-6.5543882,0
              106.8297035,-6.5530239,0
              106.8294889,-6.5519794,0
              106.8293817,-6.5513612,0
              106.8291242,-6.5503805,0
              106.8287594,-6.5497623,0
              106.8280513,-6.5494852,0
              106.8273003,-6.5487817,0
              106.8265707,-6.5482275,0
              106.8262918,-6.5478224,0
              106.8261415,-6.5474813,0
              106.8258197,-6.5471829,0
              106.826163,-6.5462023,0
              106.8262059,-6.5452643,0
              106.8260772,-6.544305,0
              106.8257124,-6.5439852,0
              106.8253476,-6.5446674,0
              106.8249828,-6.5453922,0
              106.8244678,-6.5458399,0
              106.8240602,-6.5457759,0
              106.8241245,-6.5444542,0
              106.824146,-6.5433457,0
              106.8236095,-6.5425356,0
              106.8231804,-6.5425143,0
              106.8229658,-6.5425996,0
              106.8229444,-6.5431965,0
              106.8229873,-6.5436441,0
              106.822601,-6.5436441,0
              106.8224937,-6.5430472,0
              106.8224079,-6.5427275,0
              106.8208844,-6.5427275,0
              106.8201334,-6.5426848,0
              106.819554,-6.5426209,0
              106.8185241,-6.5428127,0
              106.8179233,-6.5423011,0
              106.8178374,-6.5415337,0
              106.8182022,-6.5401693,0
              106.8183524,-6.5390608,0
              106.8184382,-6.5380801,0
              106.8179018,-6.5382933,0
              106.817065,-6.5383999,0
              106.8157346,-6.5382081,0
              106.8144257,-6.5381441,0
              106.8135459,-6.538741,0
              106.8112499,-6.5393805,0
              106.8105633,-6.5418321,0
              106.8107564,-6.5420666,0
              106.810456,-6.542898,0
              106.8105847,-6.5431112,0
              106.8095548,-6.5446461,0
              106.8094475,-6.545648,0
              106.8089969,-6.5456054,0
              106.8088681,-6.546117,0
              106.8083531,-6.5459465,0
              106.8080313,-6.5460317,0
              106.8075807,-6.5458612,0
              106.805907,-6.5456693,0
              106.8055636,-6.5455841,0
              106.8056495,-6.542962,0
              106.8056709,-6.5408728,0
              106.8057353,-6.5399135,0
              106.8030745,-6.5412565,0
              106.8012506,-6.5424077,0
              106.8006713,-6.5426848,0
              106.8009073,-6.542898,0
              106.8015081,-6.5430686,0
              106.8018729,-6.5432391,0
              106.802066,-6.5436228,0
              106.8019158,-6.5443689,0
              106.8016154,-6.5449019,0
              106.8012292,-6.5455201,0
              106.8008215,-6.54665,0
              106.8008,-6.5475666,0
              106.8011863,-6.5481635,0
              106.8016583,-6.549741,0
              106.8017442,-6.5504232,0
              106.8024308,-6.5507003,0
              106.803332,-6.5509561,0
              106.803847,-6.5515743,0
              106.8047268,-6.5518515,0
              106.8051989,-6.5518088,0
              106.8054778,-6.5523418,0
              106.8054993,-6.5531092,0
              106.805628,-6.5540898,0
              106.8057353,-6.555113,0
              106.8068082,-6.555646,0
              106.8074519,-6.5558378,0
              106.8083317,-6.5564347,0
              106.8087823,-6.55733,0
              106.8087394,-6.5582467,0
              106.8094904,-6.5591207,0
              106.8096835,-6.5599521,0
              106.8093187,-6.5609753,0
              106.8078811,-6.5624248,0
              106.8073017,-6.563576,0
              106.8076665,-6.5647484,0
              106.8079669,-6.5659421,0
              106.8080527,-6.5671572,0
              106.8079884,-6.5677754,0
              106.8068726,-6.568756,0
              106.8070657,-6.5695447,0
              106.8074519,-6.5700989,0
              106.8072803,-6.570909,0
              106.8066794,-6.5713993,0
              106.8060786,-6.5723798,0
              106.8049199,-6.5735096,0
              106.8042547,-6.5749378,0
              106.8040187,-6.5752576,0
              106.8028814,-6.5755134,0
              106.802066,-6.5758544,0
              106.8017871,-6.5767497,0
              106.8011219,-6.5777516,0
              106.8008,-6.5787108,0
              106.8009288,-6.5790732,0
              106.7991049,-6.5800538,0
              106.7979462,-6.5811196,0
              106.798268,-6.5825051,0
              106.7982251,-6.5828036,0
              106.7988903,-6.5828036,0
              106.7991478,-6.5831659,0
              106.7992336,-6.5835496,0
              106.7994482,-6.5833791,0
              106.8000276,-6.583507,0
              106.7999632,-6.5844236,0
              106.8007142,-6.5844875,0
              106.8011219,-6.5836775,0
              106.8016154,-6.5833578,0
              106.8032891,-6.5838054,0
              106.8053276,-6.5844662,0
              106.8060572,-6.5847007,0
              106.8070228,-6.5848286,0
              106.8078382,-6.5849778,0
              106.8078382,-6.5852549,0
              106.8084604,-6.5854468,0
              106.8100912,-6.5856599,0
              106.8116576,-6.5858944,0
              106.8117864,-6.5861928,0
              106.8115289,-6.5875357,0
              106.8111855,-6.5884523,0
              106.8105633,-6.588836,0
              106.8098981,-6.5892836,0
              106.8092758,-6.5898805,0
              106.8087823,-6.5906479,0
              106.8088896,-6.5916497,0
              106.811207,-6.591735,0
              106.8124945,-6.5917563,0
              106.8141253,-6.5917989,0
              106.8147046,-6.5917989,0
              106.8154127,-6.5916284,0
              106.8156273,-6.59133,0
              106.8158204,-6.5918202,0
              106.8156487,-6.592481,0
              106.81552,-6.5929286,0
              106.8156702,-6.5935255,0
              106.8160779,-6.5938452,0
              106.816271,-6.5943994,0
              106.8159062,-6.5954226,0
              106.8159706,-6.5962752,0
              106.8158204,-6.5969573,0
              106.8157989,-6.5980231,0
              106.8156917,-6.5984707,0
              106.8179233,-6.5974476,0
            </coordinates>
          </LinearRing>
        </outerBoundaryIs>
      </Polygon>
    </Placemark>
  </Document>
</kml>
