<?xml version="1.0" encoding="UTF-8"?>
<kml xmlns="http://www.opengis.net/kml/2.2">
  <Document>
    <name>Tanah Sereal</name>
    <Style id="poly-000000-1200-77-nodesc-normal">
      <LineStyle>
        <color>ff000000</color>
        <width>1.2</width>
      </LineStyle>
      <PolyStyle>
        <color>4d000000</color>
        <fill>1</fill>
        <outline>1</outline>
      </PolyStyle>
      <BalloonStyle>
        <text><![CDATA[<h3>$[name]</h3>]]></text>
      </BalloonStyle>
    </Style>
    <Style id="poly-000000-1200-77-nodesc-highlight">
      <LineStyle>
        <color>ff000000</color>
        <width>1.8</width>
      </LineStyle>
      <PolyStyle>
        <color>4d000000</color>
        <fill>1</fill>
        <outline>1</outline>
      </PolyStyle>
      <BalloonStyle>
        <text><![CDATA[<h3>$[name]</h3>]]></text>
      </BalloonStyle>
    </Style>
    <StyleMap id="poly-000000-1200-77-nodesc">
      <Pair>
        <key>normal</key>
        <styleUrl>#poly-000000-1200-77-nodesc-normal</styleUrl>
      </Pair>
      <Pair>
        <key>highlight</key>
        <styleUrl>#poly-000000-1200-77-nodesc-highlight</styleUrl>
      </Pair>
    </StyleMap>
    <Placemark>
      <name>Tanah Sereal</name>
      <styleUrl>#poly-000000-1200-77-nodesc</styleUrl>
      <Polygon>
        <outerBoundaryIs>
          <LinearRing>
            <tessellate>1</tessellate>
            <coordinates>
              106.7641827,-6.5331791,0
              106.7646428,-6.5335343,0
              106.764836,-6.5337901,0
              106.7652437,-6.5340246,0
              106.7652985,-6.5345435,0
              106.7650291,-6.5356021,0
              106.7656084,-6.535794,0
              106.765277,-6.5368032,0
              106.7650505,-6.5374994,0
              106.7647835,-6.5376133,0
              106.7642781,-6.5384161,0
              106.7649647,-6.5396952,0
              106.7663809,-6.54042,0
              106.7671749,-6.5403347,0
              106.7673465,-6.5404413,0
              106.7682167,-6.5413013,0
              106.768839,-6.5431986,0
              106.7695686,-6.5448401,0
              106.7695686,-6.5455436,0
              106.7695781,-6.5461759,0
              106.7702433,-6.5463251,0
              106.7708989,-6.5471637,0
              106.7717143,-6.5488052,0
              106.7717668,-6.5500983,0
              106.7723891,-6.5508018,0
              106.7726585,-6.5507238,0
              106.7737957,-6.5516404,0
              106.7734524,-6.5519602,0
              106.7738911,-6.5522087,0
              106.7738601,-6.5533672,0
              106.7742249,-6.5540067,0
              106.7746326,-6.5550299,0
              106.7752548,-6.5555842,0
              106.7756625,-6.5568206,0
              106.7753288,-6.5582416,0
              106.7760702,-6.5602527,0
              106.7760702,-6.5618728,0
              106.776199,-6.5630026,0
              106.7768642,-6.5641324,0
              106.778216,-6.5646653,0
              106.7789241,-6.5656672,0
              106.7793103,-6.5669888,0
              106.7795893,-6.5687155,0
              106.7805549,-6.5701864,0
              106.7816492,-6.5716359,0
              106.7824646,-6.5731707,0
              106.7831298,-6.5746202,0
              106.7841908,-6.5765528,0
              106.7844387,-6.5753237,0
              106.7846533,-6.5744923,0
              106.7847172,-6.5731938,0
              106.7855331,-6.5732133,0
              106.787604,-6.5732669,0
              106.7885266,-6.5734694,0
              106.7885266,-6.5737145,0
              106.7888163,-6.5737145,0
              106.7888807,-6.5750468,0
              106.7918419,-6.5748976,0
              106.7919599,-6.5752813,0
              106.7916809,-6.576848,0
              106.7914983,-6.5773914,0
              106.7911659,-6.5786493,0
              106.7912196,-6.5790543,0
              106.7918419,-6.579811,0
              106.792271,-6.5817828,0
              106.7917989,-6.5824436,0
              106.7915951,-6.583147,0
              106.7923676,-6.5830724,0
              106.7928396,-6.5828486,0
              106.7933546,-6.5819853,0
              106.7951142,-6.5814524,0
              106.7950712,-6.5809941,0
              106.7959081,-6.5804079,0
              106.7959081,-6.5794486,0
              106.7960583,-6.5792781,0
              106.796348,-6.5791822,0
              106.7964553,-6.578937,0
              106.7973672,-6.5790117,0
              106.797485,-6.5791606,0
              106.7981716,-6.5794591,0
              106.7991049,-6.5800538,0
              106.7999526,-6.5796296,0
              106.8009288,-6.5790732,0
              106.8008,-6.5787108,0
              106.8011219,-6.5777516,0
              106.8017871,-6.5767497,0
              106.802066,-6.5758544,0
              106.8028814,-6.5755134,0
              106.8040187,-6.5752576,0
              106.8042547,-6.5749378,0
              106.8049199,-6.5735096,0
              106.8060786,-6.5723798,0
              106.8066794,-6.5713993,0
              106.8072697,-6.571039,0
              106.8074519,-6.5700989,0
              106.8070657,-6.5695447,0
              106.8068726,-6.568756,0
              106.8079884,-6.5677754,0
              106.8080527,-6.5671572,0
              106.8079778,-6.5660722,0
              106.8073017,-6.563576,0
              106.8078811,-6.5624248,0
              106.8093187,-6.5609753,0
              106.8096835,-6.5599521,0
              106.8094904,-6.5591207,0
              106.8087394,-6.5582467,0
              106.8087823,-6.55733,0
              106.8084713,-6.5565861,0
              106.807892,-6.5560532,0
              106.8068082,-6.555646,0
              106.8057353,-6.555113,0
              106.8054887,-6.5533885,0
              106.8054778,-6.5523418,0
              106.8051989,-6.5518088,0
              106.8047268,-6.5518515,0
              106.803847,-6.5515743,0
              106.803332,-6.5509561,0
              106.8026992,-6.5507877,0
              106.8017442,-6.5504232,0
              106.8014761,-6.5492529,0
              106.8011863,-6.5481635,0
              106.8008,-6.5475666,0
              106.8008215,-6.54665,0
              106.8012292,-6.5455201,0
              106.8016907,-6.5447122,0
              106.8020126,-6.5440087,0
              106.8019911,-6.5433692,0
              106.8015081,-6.5430686,0
              106.8009073,-6.542898,0
              106.8006713,-6.5426848,0
              106.8005749,-6.5423672,0
              106.800253,-6.5424312,0
              106.799738,-6.5428789,0
              106.7991801,-6.5431347,0
              106.7991801,-6.5444351,0
              106.7990729,-6.545842,0
              106.7991372,-6.5469719,0
              106.7987724,-6.5470145,0
              106.7976996,-6.5469932,0
              106.7968198,-6.5469292,0
              106.79594,-6.5469932,0
              106.7952319,-6.5471424,0
              106.7951246,-6.5462044,0
              106.7941805,-6.5462044,0
              106.7933007,-6.5461831,0
              106.7933651,-6.5451386,0
              106.792657,-6.5448188,0
              106.7927858,-6.5445417,0
              106.7929574,-6.5438595,0
              106.7919489,-6.5435184,0
              106.792142,-6.5423672,0
              106.7923781,-6.5405765,0
              106.7925068,-6.5396172,0
              106.7926141,-6.5387219,0
              106.7919274,-6.5384874,0
              106.7919918,-6.5379757,0
              106.7917987,-6.5378265,0
              106.7918631,-6.5374214,0
              106.7924424,-6.5373362,0
              106.7925497,-6.5370164,0
              106.7927428,-6.5363769,0
              106.7929145,-6.5352257,0
              106.7928716,-6.5346288,0
              106.7931076,-6.5338187,0
              106.7932149,-6.5331152,0
              106.7932578,-6.5324756,0
              106.7931505,-6.5320066,0
              106.7929574,-6.5315163,0
              106.792893,-6.5308341,0
              106.7927428,-6.5302798,0
              106.7922493,-6.5298961,0
              106.7923137,-6.5296189,0
              106.7921849,-6.5289581,0
              106.791391,-6.5285317,0
              106.7909189,-6.528084,0
              106.7907473,-6.527615,0
              106.7906185,-6.527146,0
              106.7907044,-6.5265278,0
              106.7904898,-6.5265278,0
              106.7904254,-6.5267623,0
              106.7902108,-6.5275084,0
              106.7899533,-6.528084,0
              106.7896958,-6.528084,0
              106.7894813,-6.5277642,0
              106.7894813,-6.5269328,0
              106.7895027,-6.5243319,0
              106.7896958,-6.5236711,0
              106.7898675,-6.5229675,0
              106.7898461,-6.5223706,0
              106.7895671,-6.5212407,0
              106.7895456,-6.520793,0
              106.7893311,-6.5200469,0
              106.7892023,-6.5195565,0
              106.7889448,-6.518853,0
              106.7886444,-6.5183413,0
              106.7883011,-6.5177018,0
              106.7879578,-6.5170835,0
              106.7876359,-6.5164439,0
              106.787357,-6.515847,0
              106.7870136,-6.5155699,0
              106.7865845,-6.5155059,0
              106.7864772,-6.514845,0
              106.7858335,-6.5148877,0
              106.7849966,-6.514845,0
              106.7840739,-6.5149516,0
              106.7834517,-6.5149303,0
              106.7828294,-6.5139283,0
              106.7825934,-6.5132034,0
              106.7825719,-6.512436,0
              106.7824861,-6.5117751,0
              106.7822715,-6.5112847,0
              106.7820998,-6.5108796,0
              106.7814132,-6.5107517,0
              106.7805763,-6.510901,0
              106.7801257,-6.5110715,0
              106.7797609,-6.5114126,0
              106.7793747,-6.5116045,0
              106.7789456,-6.5117537,0
              106.7788168,-6.5120522,0
              106.7784091,-6.5119456,0
              106.7780443,-6.5119669,0
              106.7772075,-6.5120735,0
              106.7764994,-6.5122014,0
              106.7756196,-6.5126278,0
              106.774933,-6.5124786,0
              106.7738172,-6.5124786,0
              106.7722722,-6.512308,0
              106.7720362,-6.5126065,0
              106.7721864,-6.5131182,0
              106.7724439,-6.5135872,0
              106.7726155,-6.5139709,0
              106.7732593,-6.51444,0
              106.7736455,-6.5148237,0
              106.773667,-6.5152927,0
              106.7731305,-6.5151861,0
              106.7724224,-6.5151648,0
              106.7718431,-6.5152714,0
              106.7714783,-6.515314,0
              106.7711779,-6.5153993,0
              106.7707273,-6.5152501,0
              106.769826,-6.5151222,0
              106.7691179,-6.5151008,0
              106.7688175,-6.515314,0
              106.7682167,-6.5154633,0
              106.7671653,-6.515911,0
              106.766822,-6.5165719,0
              106.7663928,-6.5182134,0
              106.766028,-6.5188104,0
              106.7663499,-6.5191515,0
              106.7663928,-6.5195139,0
              106.7659851,-6.519791,0
              106.7654272,-6.5202174,0
              106.7650839,-6.5208357,0
              106.7646333,-6.5210488,0
              106.7649337,-6.5214326,0
              106.764762,-6.5216031,0
              106.7644402,-6.5224985,0
              106.7641183,-6.5231168,0
              106.765041,-6.5237776,0
              106.764805,-6.5240335,0
              106.7643758,-6.5249928,0
              106.7647191,-6.5254405,0
              106.7649552,-6.5260161,0
              106.7653199,-6.5266343,0
              106.766071,-6.5272099,0
              106.7658564,-6.527615,0
              106.7653414,-6.5277429,0
              106.7649337,-6.5282759,0
              106.7645689,-6.5291713,0
              106.764805,-6.530024,0
              106.7649337,-6.5304717,0
              106.7643758,-6.5308554,0
              106.7642471,-6.5316442,0
              106.7642041,-6.5321772,0
              106.7644187,-6.5327314,0
              106.7641827,-6.5331791,0
            </coordinates>
          </LinearRing>
        </outerBoundaryIs>
      </Polygon>
    </Placemark>
  </Document>
</kml>
